*******************************************************************************
Ephemeris / WWW_USER Mon Mar 24 09:30:53 2025 Pasadena, USA      / Horizons    
*******************************************************************************
Target body name: (2018 PL28)                     {source: JPL#6}
Center body name: Earth (399)                     {source: DE441}
Center-site name: Mauna Kea
*******************************************************************************
Start time      : A.D. 2018-Oct-27 04:00:00.0000 UT      
Stop  time      : A.D. 2018-Oct-27 16:11:00.0000 UT      
Step-size       : 1 minutes
*******************************************************************************
Target pole/equ : undefined
Target radii    : undefined                                                    
Center geodetic : 204.5278, 19.8260847, 4.21024   {E-lon(deg),Lat(deg),Alt(km)}
Center cylindric: 204.5278, 6006.35451, 2151.0229 {E-lon(deg),Dxy(km),Dz(km)}
Center pole/equ : ITRF93                          {East-longitude positive}
Center radii    : 6378.137, 6378.137, 6356.752 km {Equator_a, b, pole_c}       
Target primary  : Sun
Vis. interferer : MOON (R_eq= 1737.400) km        {source: DE441}
Rel. light bend : Sun                             {source: DE441}
Rel. lght bnd GM: 1.3271E+11 km^3/s^2                                          
Small-body perts: Yes                             {source: SB441-N16}
Atmos refraction: NO (AIRLESS)
RA format       : HMS
Time format     : CAL 
Calendar mode   : Mixed Julian/Gregorian
RTS-only print  : NO       
EOP file        : eop.250321.p250617                                           
EOP coverage    : DATA-BASED 1962-JAN-20 TO 2025-MAR-21. PREDICTS-> 2025-JUN-16
Units conversion: 1 au= 149597870.700 km, c= 299792.458 km/s, 1 day= 86400.0 s 
Table cut-offs 1: Elevation (-90.0deg=NO ),Airmass (>38.000=NO), Daylight (YES)
Table cut-offs 2: Solar elongation (  0.0,180.0=NO ),Local Hour Angle( 0.0=NO )
Table cut-offs 3: RA/DEC angular rate (     0.0=NO )                           
*******************************************************************************
Initial IAU76/J2000 heliocentric ecliptic osculating elements (au, days, deg.):
  EPOCH=  2457854.5 ! 2017-Apr-11.00 (TDB)         Residual RMS= .19092        
   EC= .8623380004677549   QR= 2.686075926237564   TP= 2457951.5509793968      
   OM= 350.7805373480467   W=  275.0956674869335   IN= 74.19591911353062       
  Equivalent ICRF heliocentric cartesian coordinates (au, au/d):
   X=-1.230595634603956E+00  Y= 5.216934222523280E-01  Z=-2.512561684350396E+00
  VX= 1.337943797263742E-02 VY=-1.672601025687851E-03 VZ=-3.313586071138778E-03
Asteroid physical parameters (km, seconds, rotational period in hours):        
   GM= n.a.                RAD= n.a.               ROTPER= n.a.                
   H= 14.87                G= .150                 B-V= n.a.                   
                           ALBEDO= n.a.            STYP= n.a.                  
*******************************************************************************
 Date__(UT)__HR:MN     R.A._________(ICRF)_________DEC
******************************************************
$$SOE
 2018-Oct-27 04:00 C   22 50 01.779847 -01 50 00.33207
 2018-Oct-27 04:01 C   22 50 01.757975 -01 50 00.24044
 2018-Oct-27 04:02 C   22 50 01.736102 -01 50 00.14881
 2018-Oct-27 04:03 C   22 50 01.714227 -01 50 00.05718
 2018-Oct-27 04:04 C   22 50 01.692351 -01 49 59.96555
 2018-Oct-27 04:05 C   22 50 01.670474 -01 49 59.87392
 2018-Oct-27 04:06 C   22 50 01.648596 -01 49 59.78228
 2018-Oct-27 04:07 C   22 50 01.626717 -01 49 59.69064
 2018-Oct-27 04:08 C   22 50 01.604837 -01 49 59.59900
 2018-Oct-27 04:09 C   22 50 01.582955 -01 49 59.50736
 2018-Oct-27 04:10 C   22 50 01.561073 -01 49 59.41571
 2018-Oct-27 04:11 C   22 50 01.539189 -01 49 59.32407
 2018-Oct-27 04:12 C   22 50 01.517304 -01 49 59.23242
 2018-Oct-27 04:13 C   22 50 01.495418 -01 49 59.14077
 2018-Oct-27 04:14 N   22 50 01.473531 -01 49 59.04912
 2018-Oct-27 04:15 N   22 50 01.451642 -01 49 58.95746
 2018-Oct-27 04:16 N   22 50 01.429753 -01 49 58.86581
 2018-Oct-27 04:17 N   22 50 01.407863 -01 49 58.77415
 2018-Oct-27 04:18 N   22 50 01.385971 -01 49 58.68249
 2018-Oct-27 04:19 N   22 50 01.364079 -01 49 58.59083
 2018-Oct-27 04:20 N   22 50 01.342185 -01 49 58.49916
 2018-Oct-27 04:21 N   22 50 01.320291 -01 49 58.40750
 2018-Oct-27 04:22 N   22 50 01.298395 -01 49 58.31583
 2018-Oct-27 04:23 N   22 50 01.276499 -01 49 58.22416
 2018-Oct-27 04:24 N   22 50 01.254601 -01 49 58.13249
 2018-Oct-27 04:25 N   22 50 01.232702 -01 49 58.04081
 2018-Oct-27 04:26 N   22 50 01.210803 -01 49 57.94914
 2018-Oct-27 04:27 N   22 50 01.188902 -01 49 57.85746
 2018-Oct-27 04:28 N   22 50 01.167001 -01 49 57.76578
 2018-Oct-27 04:29 N   22 50 01.145098 -01 49 57.67410
 2018-Oct-27 04:30 N   22 50 01.123195 -01 49 57.58241
 2018-Oct-27 04:31 N   22 50 01.101290 -01 49 57.49073
 2018-Oct-27 04:32 N   22 50 01.079385 -01 49 57.39904
 2018-Oct-27 04:33 N   22 50 01.057478 -01 49 57.30735
 2018-Oct-27 04:34 N   22 50 01.035571 -01 49 57.21566
 2018-Oct-27 04:35 N   22 50 01.013663 -01 49 57.12396
 2018-Oct-27 04:36 N   22 50 00.991754 -01 49 57.03227
 2018-Oct-27 04:37 N   22 50 00.969844 -01 49 56.94057
 2018-Oct-27 04:38 N   22 50 00.947933 -01 49 56.84887
 2018-Oct-27 04:39 N   22 50 00.926021 -01 49 56.75717
 2018-Oct-27 04:40 A   22 50 00.904109 -01 49 56.66546
 2018-Oct-27 04:41 A   22 50 00.882195 -01 49 56.57376
 2018-Oct-27 04:42 A   22 50 00.860281 -01 49 56.48205
 2018-Oct-27 04:43 A   22 50 00.838366 -01 49 56.39034
 2018-Oct-27 04:44 A   22 50 00.816450 -01 49 56.29863
 2018-Oct-27 04:45 A   22 50 00.794533 -01 49 56.20691
 2018-Oct-27 04:46 A   22 50 00.772615 -01 49 56.11520
 2018-Oct-27 04:47 A   22 50 00.750697 -01 49 56.02348
 2018-Oct-27 04:48 A   22 50 00.728777 -01 49 55.93176
 2018-Oct-27 04:49 A   22 50 00.706857 -01 49 55.84003
 2018-Oct-27 04:50 A   22 50 00.684936 -01 49 55.74831
 2018-Oct-27 04:51 A   22 50 00.663015 -01 49 55.65658
 2018-Oct-27 04:52 A   22 50 00.641093 -01 49 55.56485
 2018-Oct-27 04:53 A   22 50 00.619169 -01 49 55.47312
 2018-Oct-27 04:54 A   22 50 00.597246 -01 49 55.38139
 2018-Oct-27 04:55 A   22 50 00.575321 -01 49 55.28966
 2018-Oct-27 04:56 A   22 50 00.553396 -01 49 55.19792
 2018-Oct-27 04:57 A   22 50 00.531470 -01 49 55.10618
 2018-Oct-27 04:58 A   22 50 00.509543 -01 49 55.01444
 2018-Oct-27 04:59 A   22 50 00.487616 -01 49 54.92270
 2018-Oct-27 05:00 A   22 50 00.465688 -01 49 54.83095
 2018-Oct-27 05:01 A   22 50 00.443759 -01 49 54.73920
 2018-Oct-27 05:02 A   22 50 00.421829 -01 49 54.64746
 2018-Oct-27 05:03 A   22 50 00.399899 -01 49 54.55570
 2018-Oct-27 05:04 A   22 50 00.377969 -01 49 54.46395
 2018-Oct-27 05:05     22 50 00.356037 -01 49 54.37219
 2018-Oct-27 05:06     22 50 00.334105 -01 49 54.28044
 2018-Oct-27 05:07     22 50 00.312173 -01 49 54.18868
 2018-Oct-27 05:08     22 50 00.290240 -01 49 54.09692
 2018-Oct-27 05:09     22 50 00.268306 -01 49 54.00515
 2018-Oct-27 05:10     22 50 00.246371 -01 49 53.91339
 2018-Oct-27 05:11     22 50 00.224436 -01 49 53.82162
 2018-Oct-27 05:12     22 50 00.202501 -01 49 53.72985
 2018-Oct-27 05:13     22 50 00.180565 -01 49 53.63808
 2018-Oct-27 05:14     22 50 00.158628 -01 49 53.54630
 2018-Oct-27 05:15     22 50 00.136691 -01 49 53.45452
 2018-Oct-27 05:16     22 50 00.114753 -01 49 53.36275
 2018-Oct-27 05:17     22 50 00.092815 -01 49 53.27096
 2018-Oct-27 05:18     22 50 00.070876 -01 49 53.17918
 2018-Oct-27 05:19     22 50 00.048937 -01 49 53.08740
 2018-Oct-27 05:20     22 50 00.026997 -01 49 52.99561
 2018-Oct-27 05:21     22 50 00.005057 -01 49 52.90382
 2018-Oct-27 05:22     22 49 59.983117 -01 49 52.81203
 2018-Oct-27 05:23     22 49 59.961176 -01 49 52.72024
 2018-Oct-27 05:24     22 49 59.939234 -01 49 52.62844
 2018-Oct-27 05:25     22 49 59.917292 -01 49 52.53664
 2018-Oct-27 05:26     22 49 59.895350 -01 49 52.44484
 2018-Oct-27 05:27     22 49 59.873407 -01 49 52.35304
 2018-Oct-27 05:28     22 49 59.851464 -01 49 52.26124
 2018-Oct-27 05:29     22 49 59.829520 -01 49 52.16943
 2018-Oct-27 05:30     22 49 59.807576 -01 49 52.07762
 2018-Oct-27 05:31     22 49 59.785631 -01 49 51.98581
 2018-Oct-27 05:32     22 49 59.763687 -01 49 51.89400
 2018-Oct-27 05:33     22 49 59.741742 -01 49 51.80218
 2018-Oct-27 05:34     22 49 59.719796 -01 49 51.71037
 2018-Oct-27 05:35     22 49 59.697850 -01 49 51.61855
 2018-Oct-27 05:36     22 49 59.675904 -01 49 51.52673
 2018-Oct-27 05:37     22 49 59.653958 -01 49 51.43490
 2018-Oct-27 05:38     22 49 59.632011 -01 49 51.34308
 2018-Oct-27 05:39     22 49 59.610064 -01 49 51.25125
 2018-Oct-27 05:40     22 49 59.588117 -01 49 51.15942
 2018-Oct-27 05:41     22 49 59.566169 -01 49 51.06759
 2018-Oct-27 05:42     22 49 59.544221 -01 49 50.97576
 2018-Oct-27 05:43     22 49 59.522273 -01 49 50.88392
 2018-Oct-27 05:44  m  22 49 59.500325 -01 49 50.79208
 2018-Oct-27 05:45  m  22 49 59.478376 -01 49 50.70024
 2018-Oct-27 05:46  m  22 49 59.456427 -01 49 50.60840
 2018-Oct-27 05:47  m  22 49 59.434478 -01 49 50.51655
 2018-Oct-27 05:48  m  22 49 59.412529 -01 49 50.42471
 2018-Oct-27 05:49  m  22 49 59.390580 -01 49 50.33286
 2018-Oct-27 05:50  m  22 49 59.368630 -01 49 50.24101
 2018-Oct-27 05:51  m  22 49 59.346680 -01 49 50.14915
 2018-Oct-27 05:52  m  22 49 59.324730 -01 49 50.05730
 2018-Oct-27 05:53  m  22 49 59.302780 -01 49 49.96544
 2018-Oct-27 05:54  m  22 49 59.280830 -01 49 49.87358
 2018-Oct-27 05:55  m  22 49 59.258880 -01 49 49.78172
 2018-Oct-27 05:56  m  22 49 59.236929 -01 49 49.68985
 2018-Oct-27 05:57  m  22 49 59.214979 -01 49 49.59799
 2018-Oct-27 05:58  m  22 49 59.193028 -01 49 49.50612
 2018-Oct-27 05:59  m  22 49 59.171077 -01 49 49.41425
 2018-Oct-27 06:00  m  22 49 59.149126 -01 49 49.32237
 2018-Oct-27 06:01  m  22 49 59.127176 -01 49 49.23050
 2018-Oct-27 06:02  m  22 49 59.105225 -01 49 49.13862
